{"type": "FeatureCollection", "features": [{"type": "Feature", "geometry": {"type": "Point", "coordinates": [-84.19424, 37.52848]}, "properties": {"id": "Dever-83", "name": "Section 83 - Bighill (US-421 roadcut)", "county": "Madison", "quad": "Bighill", "kind": "technical measured section", "evidence": "Cherty and geodiferous dolomite 1.5-5 m thick in basal Renfro; Renfro 16.7-17.5 m (west of projected Locust Branch Fault trend).", "position": "Carter coordinates 1,800 ft FNL x 1,650 ft FWL, 19-M-64 converted with the KGS Carter 1-minute section grid; position uncertainty roughly 100 m.", "citation": "Dever, G.R., Jr., 1999, Tectonic implications of erosional and depositional features in upper Meramecian and lower Chesterian (Mississippian) rocks of south-central and east-central Kentucky: KGS Bulletin 5, Series XI", "url": "https://www.uky.edu/KGS/pdf/b11_05.pdf"}}, {"type": "Feature", "geometry": {"type": "Point", "coordinates": [-84.13346, 37.52348]}, "properties": {"id": "Dever-87", "name": "Section 87 - Owsley Fork", "county": "Jackson", "quad": "Bighill", "kind": "technical measured section", "evidence": "Cherty and geodiferous dolomite 1.5-5 m thick in basal Renfro; Renfro 16.7-17.5 m.", "position": "Carter coordinates 2,450 ft FSL x 50 ft FEL, 17-M-65 converted with the KGS Carter 1-minute section grid; position uncertainty roughly 100 m.", "citation": "Dever, G.R., Jr., 1999, Tectonic implications of erosional and depositional features in upper Meramecian and lower Chesterian (Mississippian) rocks of south-central and east-central Kentucky: KGS Bulletin 5, Series XI", "url": "https://www.uky.edu/KGS/pdf/b11_05.pdf"}}, {"type": "Feature", "geometry": {"type": "Point", "coordinates": [-84.03537, 37.54239]}, "properties": {"id": "Dever-89", "name": "Section 89 - Rock Lick Creek ('Platinum Mine' prospect)", "county": "Jackson", "quad": "Alcorn", "kind": "technical measured section", "evidence": "Renfro 7.8 m on Nada shale; 1.2-m mineralized zone (sphalerite, galena, calcite) 2.6 m below top; 'Platinum Mine' prospect. Evidence of fluid flow along the projected Locust Branch Fault trend.", "position": "Carter coordinates 2,800 ft FNL x 600 ft FEL, 13-M-66 converted with the KGS Carter 1-minute section grid; position uncertainty roughly 100 m.", "citation": "Dever, G.R., Jr., 1999, Tectonic implications of erosional and depositional features in upper Meramecian and lower Chesterian (Mississippian) rocks of south-central and east-central Kentucky: KGS Bulletin 5, Series XI", "url": "https://www.uky.edu/KGS/pdf/b11_05.pdf"}}, {"type": "Feature", "geometry": {"type": "Point", "coordinates": [-83.96419, 37.59761]}, "properties": {"id": "Dever-95", "name": "Section 95 - Drip Rock (KY-89 roadcut)", "county": "Estill", "quad": "Leighton", "kind": "technical measured section", "evidence": "Brecciated dolomite with quartz bodies in the Renfro (northeasternmost reported).", "position": "Carter coordinates 900 ft FNL x 700 ft FWL, 23-N-67 converted with the KGS Carter 1-minute section grid; position uncertainty roughly 100 m.", "citation": "Dever, G.R., Jr., 1999, Tectonic implications of erosional and depositional features in upper Meramecian and lower Chesterian (Mississippian) rocks of south-central and east-central Kentucky: KGS Bulletin 5, Series XI", "url": "https://www.uky.edu/KGS/pdf/b11_05.pdf"}}, {"type": "Feature", "geometry": {"type": "Point", "coordinates": [-84.32638, 37.376]}, "properties": {"id": "Dever-74", "name": "Section 74 - Renfro Valley South", "county": "Rockcastle", "quad": "Wildie/Mount Vernon", "kind": "contrast (non-target interval)", "evidence": "Muldraugh and Salem-Warsaw correlatives (8.2-9.4 m) with chert and geodes. CONTRAST: quartz geodes in a NON-target interval southwest of the Nada/Renfro belt.", "position": "Carter coordinates 2,700 ft FNL x 2,000 ft FWL, 15-K-63 converted with the KGS Carter 1-minute section grid; position uncertainty roughly 100 m.", "citation": "Dever, G.R., Jr., 1999, Tectonic implications of erosional and depositional features in upper Meramecian and lower Chesterian (Mississippian) rocks of south-central and east-central Kentucky: KGS Bulletin 5, Series XI", "url": "https://www.uky.edu/KGS/pdf/b11_05.pdf"}}, {"type": "Feature", "geometry": {"type": "Point", "coordinates": [-84.33779, 37.39487]}, "properties": {"id": "Dever-75", "name": "Section 75 - Lake Linville", "county": "Rockcastle", "quad": "Wildie", "kind": "contrast (non-target interval)", "evidence": "Muldraugh and Salem-Warsaw correlatives with chert and geodes. CONTRAST: non-target interval.", "position": "Carter coordinates 1,900 ft FNL x 1,300 ft FEL, 10-K-62 converted with the KGS Carter 1-minute section grid; position uncertainty roughly 100 m.", "citation": "Dever, G.R., Jr., 1999, Tectonic implications of erosional and depositional features in upper Meramecian and lower Chesterian (Mississippian) rocks of south-central and east-central Kentucky: KGS Bulletin 5, Series XI", "url": "https://www.uky.edu/KGS/pdf/b11_05.pdf"}}, {"type": "Feature", "geometry": {"type": "Point", "coordinates": [-84.21138, 37.52888]}, "properties": {"id": "KSPG-6B", "name": "KSPG 2013 Stop 6B - Bighill roadcut, US-421", "county": "Madison", "quad": "Bighill", "kind": "technical field-trip stop", "evidence": "'The upper dolostone bed contains randomly arranged silica (chalcedony and quartz) geodes that appear to replace dolostone.' Uppermost Borden: Nada Member, Wildie Member (commonly mapped as Nada), lower Renfro.", "position": "Coordinates as published for Stops 6A/6B (37 deg 31' 43.98\" N, 84 deg 12' 40.98\" W).", "citation": "Ettensohn, F.R., and others, 2013, KSPG field trip guidebook: The Early-Middle Mississippian Borden-Grainger-Fort Payne delta/basin complex", "url": "https://kgs.uky.edu/kgsweb/olops/pub/kgs/KSPG%202013%20guidebook.pdf"}}]}