{"type": "FeatureCollection", "features": [{"type": "Feature", "geometry": {"type": "Polygon", "coordinates": [[[-83.97670839925243, 37.80512369368659], [-83.95430240923015, 37.81949338163479], [-83.92422228600878, 37.8292873467671], [-83.8991658751312, 37.83678585294261], [-83.87955677537299, 37.84113088518308], [-83.85375635911583, 37.842374830912526], [-83.76336702901473, 37.836298216876386], [-83.73899341231325, 37.8321127731108], [-83.71053461612738, 37.81819712196354], [-83.70331652076712, 37.803817561465145], [-83.71277796361505, 37.787752071949186], [-83.76040402318664, 37.721215682027], [-83.76936430042913, 37.705631611559994], [-83.78773586218732, 37.68034281790345], [-83.80607507201888, 37.66280952528773], [-83.81239871215578, 37.65392516911996], [-83.81513006043839, 37.638712928427154], [-83.82315235369214, 37.623779525473445], [-83.84047322972435, 37.604138493335896], [-83.85260734290054, 37.592091842377194], [-83.87854350807184, 37.55884500863441], [-83.9005032518919, 37.52113112226487], [-83.91093930753429, 37.513631285975805], [-83.92914641022183, 37.51326894919372], [-83.9451904379772, 37.515577182648435], [-83.97861648020472, 37.52465140567146], [-83.9922702481942, 37.525159387971215], [-84.00555354467232, 37.52129698521645], [-84.029347293468, 37.5094778100205], [-84.05231762311809, 37.5054861784785], [-84.08898074537022, 37.49607316975649], [-84.1317529415604, 37.499130208749165], [-84.15762717687602, 37.49668603636992], [-84.19122060039379, 37.4906271743926], [-84.21089730286872, 37.477287032337216], [-84.22464995381142, 37.45103000530219], [-84.24219400369955, 37.44483999477994], [-84.26087350164896, 37.44627479918499], [-84.27831857246416, 37.4485214075354], [-84.29431767906541, 37.46788021683137], [-84.30376269981161, 37.49807536347875], [-84.29974802909389, 37.52366559677929], [-84.28256656800052, 37.55516737943453], [-84.25375029173891, 37.58301865484129], [-84.22434117410218, 37.59503953710924], [-84.19703592253896, 37.60551898399909], [-84.1345707284346, 37.631853471241875], [-84.10699347149493, 37.64570732975355], [-84.063167393373, 37.656844380855084], [-84.02140271526615, 37.666768943793045], [-84.00531394152816, 37.67487658367234], [-83.99499726659714, 37.6851290779883], [-83.99066493183203, 37.69802585882201], [-83.99186046550768, 37.736195281822816], [-83.99168158488345, 37.766616769813474], [-83.9891613514724, 37.781850607650355], [-83.97670839925243, 37.80512369368659]]]}, "properties": {"name": "KGS general location of Kentucky agates", "source": "KGS Kentucky Mineral Resources Information database (T.N. Sparks, KGS, unpublished area outline)", "url": "https://kgs.uky.edu/kymineral/", "note": "Area outline of reported agate occurrence; used as the regional-evidence input (R) in scoring."}}]}