{"type": "FeatureCollection", "features": [{"type": "Feature", "geometry": {"type": "LineString", "coordinates": [[-84.15051917993532, 37.54762527466466], [-84.14794031258735, 37.54747060808241], [-84.14289858003897, 37.54878087477378], [-84.14054651304572, 37.54977367531937], [-84.13717457972726, 37.549481208023835], [-84.13647171269615, 37.54897027473556], [-84.13555458040176, 37.54880520832743], [-84.1345965127782, 37.54832707526207], [-84.13304617959962, 37.546789007656855], [-84.13221278017119, 37.54549287468358], [-84.1305583798619, 37.544877074780075], [-84.129235379739, 37.54364660788329], [-84.12745018023274, 37.54286047511922], [-84.1256585802301, 37.54147600820262], [-84.12540397971227, 37.5410146752071], [-84.12063737957587, 37.53857220777862], [-84.11925091257983, 37.53763400785878], [-84.11763031317972, 37.53718460820308], [-84.11418797979076, 37.53444627491213], [-84.11406331339226, 37.53345820833831], [-84.11244971276653, 37.532953674843256], [-84.11051837982144, 37.531406274890095], [-84.10913158044875, 37.52943567535251], [-84.1082697798843, 37.52934267498584], [-84.10699491329095, 37.53025460787378], [-84.10629137970989, 37.529733275034275], [-84.1062911802839, 37.52935440823396], [-84.10593951320637, 37.52903607465627], [-84.10463651317497, 37.52900367521841], [-84.1025059132386, 37.52817527525067], [-84.09996891277275, 37.52787420772698], [-84.09846577977414, 37.52731460768309], [-84.09500571274314, 37.52857280816171], [-84.09219297979074, 37.52835380772826], [-84.0910553802644, 37.52798080777723], [-84.09009758033879, 37.52916140782277], [-84.08879471325805, 37.52922760784294], [-84.08722338016307, 37.531078074993424], [-84.08721657991636, 37.53157220831914], [-84.0866583128999, 37.531479008300224], [-84.08576911282097, 37.53182500803782], [-84.08365951280099, 37.53192980796527], [-84.08240471277446, 37.531639008160134], [-84.08179791337648, 37.53113400785729], [-84.08050171269343, 37.5307278751129], [-84.07909538035321, 37.53096407483202], [-84.07628978002415, 37.5320844077675], [-84.07530378018517, 37.53125547495803], [-84.07436631272769, 37.53156847473552], [-84.07293931284772, 37.531552075033375], [-84.07176718028522, 37.531288674848284], [-84.07016091260715, 37.53025120833636], [-84.06894071299044, 37.53046527488128], [-84.06822378013858, 37.530910008292835], [-84.06744477998882, 37.531848807856136], [-84.06538351292441, 37.53212887491974], [-84.06463211261342, 37.533386075242916], [-84.06349451308708, 37.53353440823436], [-84.06275691269549, 37.53386927496665], [-84.06132971338953, 37.53736100778501], [-84.06011618017052, 37.53776167509887], [-84.05948191298609, 37.537564007935146], [-84.05853037970789, 37.53837107521397], [-84.05886117981969, 37.53961187494859], [-84.05870951275872, 37.539979675352726], [-84.05797871261382, 37.539990475239605], [-84.05731678001356, 37.54045720807107], [-84.05599291301641, 37.540753607722955], [-84.05283491258456, 37.542153275266415], [-84.05053191336876, 37.542734875079304], [-84.04903578004284, 37.542784207827474], [-84.04692631297354, 37.54131247513592], [-84.0444029130011, 37.54078500769689], [-84.04128651265172, 37.54098760819041], [-84.03903217966645, 37.540185474826764], [-84.03666737995236, 37.540075208211235], [-84.03417811326577, 37.540804674788056], [-84.03309631259329, 37.539640607828936], [-84.03253091295346, 37.53942080792197], [-84.03035211301223, 37.539859407729985], [-84.02780837967332, 37.538941808331316], [-84.02499551287194, 37.53910547481312], [-84.0241615133689, 37.53866060792104], [-84.02295578022151, 37.537205274925256], [-84.02237678008828, 37.53688120783857], [-84.02131498040559, 37.53717720784402], [-84.01911471342402, 37.538719075201755], [-84.01806657981174, 37.539174407677876], [-84.01641171327681, 37.539497607896315], [-84.01560451321365, 37.54020000783547], [-84.01497011307853, 37.540408274805536], [-84.01266051304204, 37.54024260820383], [-84.0104067127577, 37.539396207752084]]}, "properties": {"name": "Rock Lick Creek", "precision": "Named-stream level only - the report gives no point location. Whole NHD stream shown.", "evidence": "Mindat.org Kentucky chalcedony/agate locality list names 'Station Camp Creek; South Fork; Rock Lick Creek, Jackson County'.", "source": "https://www.mindat.org/locentry-1080948.html", "quality": "secondary / collector report - not used in scoring"}}, {"type": "Feature", "geometry": {"type": "LineString", "coordinates": [[-83.9092971800084, 37.53286400775715], [-83.90850717998798, 37.533819607922744], [-83.90802818031217, 37.53498620768119], [-83.90821131356094, 37.53527427470348], [-83.90919497957682, 37.535597474730416], [-83.91144178018845, 37.53735120833365], [-83.91163091418332, 37.53795480782817], [-83.91148471426915, 37.53941747504674], [-83.91314111422827, 37.53963487521491], [-83.91441077957612, 37.53926687508874], [-83.91603957969645, 37.53951947492215], [-83.9171137141463, 37.540346408347496], [-83.9180007142511, 37.54196420771376], [-83.91882651393222, 37.542901207815525], [-83.91873951389358, 37.5434322080836], [-83.9169921801732, 37.54460707489259], [-83.91558991360795, 37.544377208332655], [-83.91527031369111, 37.54457007534891], [-83.91484211374463, 37.545426874998405], [-83.9155297139075, 37.54816407500856], [-83.91817158010635, 37.549717274984964], [-83.91778417984344, 37.551028007841246], [-83.91661658017985, 37.55253060831909], [-83.91795977982024, 37.55347427470243], [-83.91858318008468, 37.553536474956324], [-83.91918017976127, 37.553056408063945], [-83.9196335801464, 37.55310160835593], [-83.9220187797023, 37.55401427478197], [-83.92332677975656, 37.55693327534431], [-83.92500977972956, 37.55788287497972], [-83.92531878042436, 37.55884120805299], [-83.92615211427578, 37.559733808113315], [-83.92567438032623, 37.56054080770965], [-83.92492177986601, 37.56091547488245], [-83.92266178030793, 37.560645008274065], [-83.92127838016027, 37.56100180765414]]}, "properties": {"name": "Station Camp Creek", "precision": "Named-stream level only - the report gives no point location. Whole NHD stream shown.", "evidence": "Mindat.org list (Jackson County entry); collector blog describes collecting access along Station Camp Creek.", "source": "https://www.mindat.org/locentry-1080948.html", "quality": "secondary / collector report - not used in scoring"}}, {"type": "Feature", "geometry": {"type": "LineString", "coordinates": [[-84.20564951296384, 37.50804940777321], [-84.2032989802931, 37.50681440818459], [-84.1996599796373, 37.50705640804136], [-84.19899151269166, 37.5075286081509], [-84.19760618026784, 37.507891074702606], [-84.19491818018926, 37.50778147509007], [-84.19303657977493, 37.508166008321915], [-84.19253351333435, 37.5079792753337], [-84.1911413132902, 37.50833620776911], [-84.18958371274094, 37.50914887517055], [-84.18691631282846, 37.509676007669356], [-84.18536551342423, 37.51043907478479], [-84.17830138032055, 37.50533800778356], [-84.17473151311069, 37.50490400814634], [-84.1738219796653, 37.5039868752479], [-84.17245757978422, 37.50330600767256], [-84.17076911266439, 37.50313547535104], [-84.17052778026333, 37.50357467476708], [-84.16899098020448, 37.50322847488904], [-84.16863957992659, 37.50283320787976], [-84.1668481128746, 37.502058674681535], [-84.16568358005941, 37.501251407672775], [-84.16500891294172, 37.49990820816699], [-84.16418197958667, 37.49977060832905], [-84.16225231301642, 37.50000067507572], [-84.15846131292298, 37.50123340777734], [-84.15732391282262, 37.50201820830923], [-84.15671051260394, 37.50213340792184], [-84.15662797988719, 37.50186427526024], [-84.15555271266176, 37.50217687524577], [-84.15439491271962, 37.50221507527231], [-84.15375391266211, 37.50266507470382], [-84.15321591343509, 37.5036258079068], [-84.15116211316732, 37.50357580787624], [-84.15009378003758, 37.503855408107256], [-84.14960391344178, 37.50493687484791], [-84.14899731257145, 37.50528260786955], [-84.14619911256369, 37.50538047484704], [-84.14594398024323, 37.50567140764583], [-84.14673571311384, 37.50733520780133], [-84.14659038007392, 37.50822460782115], [-84.14594231297008, 37.508669074756796], [-84.1439503796759, 37.50873980798097], [-84.14303357975818, 37.50903047471643], [-84.14272937966027, 37.510699408247056], [-84.14189491303327, 37.51160500766963], [-84.14008118033865, 37.51313060798264], [-84.13807498000116, 37.51380507489963], [-84.13781277973602, 37.51411240833081], [-84.13791517959358, 37.5155236080059], [-84.13869357966874, 37.51652320778082], [-84.13835551308459, 37.51695127511398], [-84.1357289128557, 37.51759240819141], [-84.13464631268262, 37.51823427534312], [-84.13383291334567, 37.51804727470261], [-84.13245498034483, 37.517250475035745], [-84.129455713122, 37.51836360814166], [-84.12829791317985, 37.51808847481999], [-84.12723691299779, 37.517538874896445], [-84.12699598034699, 37.51704467497594], [-84.1270383799301, 37.51582040814907], [-84.12666671276108, 37.51513927513696], [-84.12392631305364, 37.51283187465815], [-84.12068737980458, 37.513481407783324], [-84.11759851281867, 37.5119400747401], [-84.1166199797763, 37.512302807746146], [-84.11551097991365, 37.51334647511209], [-84.11314678027419, 37.51298507467292], [-84.10754351263834, 37.513415607784225], [-84.10690218020419, 37.51287227531395], [-84.10483418026672, 37.51218680793882], [-84.10455091271153, 37.51098447505097], [-84.10393037986948, 37.510677274818185], [-84.10224931307097, 37.511836274966974], [-84.10149117988692, 37.511907875235075], [-84.10027071257224, 37.51059607491375], [-84.09873318038645, 37.509674207669356], [-84.09865031259811, 37.50923500779503], [-84.09969038023745, 37.5080104083387], [-84.09955931334254, 37.50742840805222], [-84.09786318000009, 37.50630900824346], [-84.09600918032287, 37.505853807942806], [-84.09542317961862, 37.50528287510618], [-84.09514011328606, 37.50404767510546], [-84.0963321129894, 37.50341047494476], [-84.09624211257771, 37.502449808098675], [-84.09459457988876, 37.501489408257335], [-84.09364997980795, 37.50049040818975], [-84.09293331285741, 37.500194075183465], [-84.09210638040072, 37.500408475262155], [-84.09192131307915, 37.50261560780957], [-84.09063938033779, 37.502621408120326], [-84.0868495130199, 37.50330847486637], [-84.08554017986576, 37.50396220780596], [-84.0839689132461, 37.50340787520161], [-84.08163258024506, 37.50313380774651], [-84.0809987128109, 37.503298608228526], [-84.08007538034444, 37.50427600764625], [-84.07816651336628, 37.5042708082201], [-84.07748418002592, 37.503793207745275], [-84.07707718032015, 37.50191007528753], [-84.07566451306053, 37.502036475263694], [-84.07414857996744, 37.502997475248385], [-84.07251558022315, 37.504523875043596], [-84.0707375798156, 37.50517740778072], [-84.07064811300319, 37.505528807937004], [-84.0713373130656, 37.50632480776666], [-84.07130291298009, 37.50692867470942], [-84.0709447133538, 37.50743387519997], [-84.06860851330343, 37.50975087508971], [-84.0668235796985, 37.5108270082878], [-84.06534871308862, 37.51204587525553], [-84.06488697993089, 37.5117658753091], [-84.06521078037, 37.51005840834973], [-84.06382551262486, 37.50966307488925], [-84.06228871256604, 37.50972900788771], [-84.06195791335254, 37.50997607476002], [-84.06116517975872, 37.5117878081833], [-84.0604691129743, 37.512249007720335], [-84.05980737980005, 37.51221047507224], [-84.05926311302727, 37.51100820812266], [-84.05856697976752, 37.51043160835245], [-84.05663031262627, 37.510667607963924], [-84.05511411273353, 37.51057420795934], [-84.05464537990312, 37.510788274671], [-84.05451418005755, 37.51314907529649], [-84.05425231306741, 37.513582808244415], [-84.05384558016127, 37.513709008181685], [-84.0532529130593, 37.513544207879924], [-84.05297737999872, 37.512094807889724], [-84.05241231273557, 37.5114524076581], [-84.05042751296307, 37.51116127506639], [-84.0491733803848, 37.51002467526105], [-84.04848411294877, 37.51010140787921], [-84.04825657956877, 37.51052420830711], [-84.04925578015087, 37.51167720814351], [-84.0492901128627, 37.51202860834348], [-84.04528511340733, 37.515190274948836], [-84.04303851312002, 37.51391620833531], [-84.04028151344447, 37.51456900829332], [-84.03764191279676, 37.514123807652254], [-84.03603631256695, 37.5133438080223], [-84.03339671281756, 37.51321147521667], [-84.03074391322339, 37.511679008095214], [-84.03054418000649, 37.511206807875304], [-84.03068291312404, 37.50943907499101], [-84.03017991315878, 37.5090820081606], [-84.02907717994354, 37.509208008343435], [-84.02736031258601, 37.51091500806587], [-84.02546457987565, 37.511902474683815], [-84.02440317994326, 37.511891208273255], [-84.02354238010204, 37.510677608305436], [-84.0215849133687, 37.51102827498258], [-84.02110218029458, 37.51151680775983], [-84.02192171332828, 37.51276880817745], [-84.02190758013391, 37.51326840765211], [-84.02063851306404, 37.51489847503752], [-84.02216111255488, 37.51604100794932], [-84.02299437993095, 37.51716120803359], [-84.02294538042545, 37.518445807790286], [-84.02209671323047, 37.520273675097144], [-84.02310878038237, 37.52222307490724], [-84.02317731285541, 37.522964208121664], [-84.02031651284877, 37.523633008345385], [-84.02032957974289, 37.524753008250194], [-84.01977737994785, 37.52582880828267], [-84.01728131301455, 37.52717287502307], [-84.01568111255791, 37.528671007927365], [-84.01468131279952, 37.529021875014344], [-84.0138947802761, 37.52983407494457], [-84.01250897983002, 37.53019587464546], [-84.01077171263069, 37.53032687507791], [-84.00959238007117, 37.531122274889114], [-84.00987417977919, 37.532149075012974], [-84.01150017985078, 37.533346675166364], [-84.01196777990563, 37.53521900813792], [-84.01312518009746, 37.53638340768798], [-84.01319357961982, 37.53712460821624], [-84.01224811266476, 37.53857347498366], [-84.01164791318914, 37.53895200789161], [-84.0104067127577, 37.539396207752084], [-84.0096347796543, 37.53896760818009], [-84.00862331257696, 37.53892307529915], [-84.00814671319965, 37.539730275314696], [-84.00632171293638, 37.54139340798312], [-84.00402511331868, 37.541705474857324], [-84.00399378008157, 37.54296160772414], [-84.00167031275201, 37.5455644747034], [-84.00150571264588, 37.546222808188496], [-84.0019367126411, 37.54676020773235], [-84.00528271339395, 37.54920547512906], [-84.00574631325082, 37.55096040776993], [-84.00539637992178, 37.55205000793086], [-84.00456597996808, 37.55255240813812], [-84.00175977956442, 37.5524542077725], [-84.00025011311875, 37.55252940829613], [-83.99986691337811, 37.5527612082055], [-83.99926857970334, 37.553961207745246], [-83.99895277966017, 37.55554887466852], [-83.99571731300978, 37.55702700827101], [-83.99554637978088, 37.55736980805406], [-83.99691491281057, 37.55993400785845], [-83.99736571257297, 37.56105807483135], [-83.99724431334717, 37.56145080809107], [-83.9966693134119, 37.56179847531588], [-83.99398257995786, 37.56214987510698], [-83.99284857998086, 37.56191440794256], [-83.98840437981002, 37.561968274688745], [-83.98664611269432, 37.56115260795136], [-83.9852489800009, 37.559766274667105], [-83.98311817974023, 37.558619408151905], [-83.98212697955405, 37.55842207473211], [-83.98057618014984, 37.56051680769157], [-83.97893231258725, 37.56035360764852], [-83.97689211281286, 37.56086727497985], [-83.97683091328751, 37.56158407503414], [-83.97624671280711, 37.562695407863025], [-83.97523151322979, 37.5632690750694], [-83.97483471299576, 37.56322967511955], [-83.97351838016888, 37.56246940816617], [-83.96945031269236, 37.56233500774163], [-83.9636107126783, 37.559640807794075], [-83.96106717966371, 37.559343007739656], [-83.95871177992079, 37.55725467520448], [-83.95784878010545, 37.557178874846144], [-83.9559339132795, 37.55761807518468], [-83.9530313802397, 37.55881347526814], [-83.95150091330362, 37.56324860783374], [-83.95069997988787, 37.56394300815908], [-83.94950958008408, 37.56309540780108], [-83.94826371290472, 37.562611607798345], [-83.94738791299491, 37.56162487511668], [-83.94552071257458, 37.56035960784489], [-83.94287831277643, 37.55996147532183], [-83.94262377963226, 37.55975627520931], [-83.94139591289459, 37.55810480810455], [-83.94305851302582, 37.55462740765094], [-83.941886180139, 37.55334120833034], [-83.9387423129015, 37.55248827491813], [-83.93636657979208, 37.55081240785474], [-83.93588671324203, 37.550224808086824], [-83.93612657959257, 37.54840467514308], [-83.9365607129115, 37.54786327478281], [-83.93688378032533, 37.54659120773359], [-83.93665338042126, 37.5455338082197], [-83.93645558037886, 37.54533407477237], [-83.93430211292862, 37.545119474697536], [-83.932427113335, 37.54637180794073], [-83.93182418028597, 37.54653660766303], [-83.92972137961439, 37.54601207529754], [-83.92764758015345, 37.54319660769766], [-83.92753671367433, 37.54246587530385], [-83.92819037997735, 37.54016080795314], [-83.92738391383777, 37.5395272076947], [-83.92452411365605, 37.53870220765845], [-83.92327517962833, 37.53718327472808], [-83.92298371404787, 37.53544500784207], [-83.92253591376021, 37.53483807489795], [-83.92182518018214, 37.53442987513041], [-83.92052197982643, 37.53429980796463], [-83.9194211797857, 37.53504447482411], [-83.91671198036471, 37.53576347505496], [-83.91594171363614, 37.53519187490629], [-83.91489411362316, 37.534907407773225], [-83.91133691355714, 37.533067808025464], [-83.9092971800084, 37.53286400775715]]}, "properties": {"name": "South Fork Station Camp Creek", "precision": "Named-stream level only - the report gives no point location. Whole NHD stream shown.", "evidence": "Mindat.org list names 'South Fork' with Station Camp Creek, Jackson County.", "source": "https://www.mindat.org/locentry-1080948.html", "quality": "secondary / collector report - not used in scoring"}}, {"type": "Feature", "geometry": {"type": "LineString", "coordinates": [[-84.04368011325214, 37.56019227510345], [-84.04323171288986, 37.56087300809733], [-84.04280358031703, 37.56239920796833], [-84.04197578008777, 37.56287107487497], [-84.03834791315161, 37.56345227519857], [-84.03180877975444, 37.56564100822464], [-84.02811191322131, 37.56612307465005], [-84.02569811310342, 37.56579827525333], [-84.02208371281168, 37.56648867503372], [-84.02148331301174, 37.56720220827949], [-84.01899237995029, 37.56885367523171], [-84.01803931324794, 37.57068700771449], [-84.01669371330912, 37.571663608262654], [-84.01412751310498, 37.57217300824873], [-84.01239657992672, 37.57166707497541], [-84.01244417985701, 37.5725236079533], [-84.01001431337025, 37.57523440773069], [-84.00922597972468, 37.57768260800553], [-84.0076525131309, 37.57864260786943], [-84.00339558025576, 37.57959547472203], [-84.00113351277591, 37.5789848753363], [-83.99675611312621, 37.57958447482913], [-83.9958109129708, 37.57944767478301], [-83.99472137960034, 37.579838208078016], [-83.99442511342302, 37.58038727479295], [-83.99172831344791, 37.58074000786189], [-83.989831180264, 37.58076300824984], [-83.98895497970555, 37.580467008347384], [-83.98687157994915, 37.580440407724176], [-83.98612711283556, 37.58106667492593], [-83.98301711298258, 37.58269860767747], [-83.98130051332299, 37.58447247532903], [-83.98072198031372, 37.585823274663476], [-83.98072971301168, 37.58706400829289], [-83.98026791337863, 37.587651607942306], [-83.98029598034137, 37.58838740826957], [-83.9793165130511, 37.588777474687284], [-83.9787449132392, 37.590413808272665], [-83.97759358026877, 37.59181960768576], [-83.97787071322888, 37.593532407981726], [-83.97762271263345, 37.59421320779632], [-83.97786451305679, 37.59476767478305], [-83.97681597969422, 37.59506447479602], [-83.97640931326343, 37.595536874972744], [-83.97692731329728, 37.596579674843255], [-83.97637557972789, 37.59707407496942], [-83.97576231335813, 37.5982436076622], [-83.97559098037894, 37.600176075022276], [-83.97458411267588, 37.60114827469091], [-83.97448831274075, 37.6026414753106], [-83.97349551265503, 37.60411880809009], [-83.97246758035688, 37.60436067506319], [-83.97201931294525, 37.60482747508005], [-83.97117111287422, 37.606019075003374], [-83.97068891339937, 37.607578407908086], [-83.96799111270103, 37.60832587506086], [-83.9671289132846, 37.60902900811312], [-83.96643877987262, 37.609084074758314], [-83.96570757997745, 37.609682675311426], [-83.96472058031353, 37.60934260777152], [-83.9641687802688, 37.610056474685955], [-83.96305078018531, 37.61013920799526], [-83.96211951289993, 37.61085860795278], [-83.96081591279392, 37.61242360768436], [-83.96011251306183, 37.61396100811241], [-83.95947077997904, 37.6140106082154], [-83.95977458032667, 37.614543007943674], [-83.95930557979833, 37.615311807988796], [-83.9592717133121, 37.6166788077524], [-83.95853337989523, 37.61717860811624], [-83.95782291311681, 37.61818887489013]]}, "properties": {"name": "Middle Fork Station Camp Creek", "precision": "Named-stream level only - the report gives no point location. Whole NHD stream shown.", "evidence": "Collector blog reports geodes/agate from side streams of Middle Fork Station Camp Creek, from upper Nada blue-green shale under the Renfro.", "source": "https://vanstockum.blog/2024/02/15/10358/", "quality": "secondary / collector report - not used in scoring"}}, {"type": "Feature", "geometry": {"type": "LineString", "coordinates": [[-84.17404091257477, 37.627933875313296], [-84.17346791318764, 37.62776360813693], [-84.17205958029928, 37.62804340783991], [-84.17106571301501, 37.62729120772124], [-84.17040298001584, 37.627115275088656], [-84.16911197968, 37.627483007696355], [-84.1675935133378, 37.62724660811758], [-84.16430698015846, 37.62885480793131], [-84.1604825133291, 37.62921627476242], [-84.15913651274167, 37.62900187512608], [-84.15784518002917, 37.62976467476772], [-84.15578077964103, 37.630444874766006], [-84.15347511332716, 37.6304224076594], [-84.15108591267503, 37.631684408235174], [-84.15024271262685, 37.633737475321254], [-84.14788131303611, 37.63439560771525], [-84.1466105795914, 37.63507587488143], [-84.14556137967888, 37.634872407751864], [-84.1447059131355, 37.63372460817352], [-84.14240011297265, 37.633723674812565], [-84.14099898008129, 37.6331522081436], [-84.1393415129236, 37.63410127527099], [-84.13798258018934, 37.63249207490962], [-84.13704371315667, 37.632634475147896], [-84.13669831272657, 37.63285400780999], [-84.13640751279775, 37.63405620809579], [-84.13597917990059, 37.63447327512439], [-84.1333693125905, 37.634894808065084], [-84.13293418034493, 37.635130674672695], [-84.13291318042855, 37.635597275131644], [-84.13350631285782, 37.636465207703715], [-84.13347818031806, 37.63699760810731], [-84.13149658034462, 37.63734807527905], [-84.13083271277326, 37.63874227467695], [-84.12905637963885, 37.64121747466885], [-84.12697017983372, 37.64251760782606], [-84.1266017798374, 37.645498608273776], [-84.12579378027363, 37.64563000768254], [-84.12508911301867, 37.646112807859836], [-84.11930691265633, 37.64688300766294], [-84.11905838025824, 37.64706427500486], [-84.11920371329818, 37.64746500792355], [-84.12048878026155, 37.64850760811142], [-84.12044077968267, 37.64889187473609], [-84.11917717975962, 37.6490078082653], [-84.11776791262336, 37.64803120782629], [-84.11720858020496, 37.648080807956084], [-84.11644298022429, 37.64917367530365], [-84.116002113134, 37.65066727492757], [-84.115221912835, 37.650848675281416], [-84.11307431318022, 37.650712474985816], [-84.11267437962245, 37.65155260812856], [-84.11289617995432, 37.65283720799137], [-84.11239971343613, 37.653853075177864], [-84.1127107802561, 37.65433607508966], [-84.11262177966931, 37.65564827515377], [-84.11218718012475, 37.65636767490133], [-84.11025411343114, 37.65718100802215], [-84.10699617991553, 37.65987787535372], [-84.1065059126711, 37.65990007469316], [-84.10497231330963, 37.65907147501084], [-84.10381218044269, 37.659198207958035], [-84.09825398038633, 37.661264275227914], [-84.0965687804392, 37.66112187511096], [-84.09611318007993, 37.66173700792108], [-84.0957759129964, 37.664141808152316], [-84.09527171288194, 37.66431207515781], [-84.09277151280003, 37.66397780779909], [-84.09188758044192, 37.66420307468016], [-84.09103137997495, 37.66477980785742], [-84.08947811289865, 37.66664127517925], [-84.08901558024031, 37.667437407779104], [-84.08921611295783, 37.66809620793862], [-84.09286277983627, 37.667848275229474], [-84.0947491125755, 37.6701482750544], [-84.09662811326541, 37.670828607989215], [-84.09716751296597, 37.67235460822894], [-84.09704451294232, 37.67557187469802], [-84.09856437975805, 37.6761424753463], [-84.09902058019195, 37.67690000807533], [-84.10054091323332, 37.67817327503387], [-84.10072757955608, 37.67865080787518], [-84.10030651313126, 37.679249408329035], [-84.0980825800335, 37.68012300827539], [-84.09788237969265, 37.68052927528553], [-84.09804851322299, 37.68127587506026], [-84.09693737986154, 37.683642474779525], [-84.09507937998634, 37.68463120774691], [-84.09461691290504, 37.685251675156586], [-84.09247578022197, 37.686756408064845], [-84.0927455802344, 37.687717207918155], [-84.09184777968494, 37.688683607696134], [-84.09161331310757, 37.689776207861804], [-84.09173778008008, 37.69020987478785], [-84.09381071266678, 37.69104940806743], [-84.09441198023927, 37.69162020812731], [-84.09460571271008, 37.69239980796107], [-84.09444031310333, 37.69332220806033], [-84.09384631290148, 37.69411840765904], [-84.0934251126277, 37.69446440782478], [-84.09167731268168, 37.69505207484352], [-84.09151752125724, 37.69530828291904], [-84.09182644200199, 37.69601537019279], [-84.09134589812223, 37.69696272903616], [-84.09229371327343, 37.69960340775159], [-84.09208678005953, 37.7009210081085], [-84.09235651269833, 37.701700608233836], [-84.0917353133063, 37.703490475234354], [-84.09285518008895, 37.70499447486776], [-84.09357438028857, 37.706800607790505], [-84.09199291329887, 37.709584408236], [-84.0924075801256, 37.709913675199914], [-84.09540011267876, 37.71047847483325], [-84.09582877974918, 37.71104387493544], [-84.09530378004263, 37.71166440772715], [-84.09349351304839, 37.712515808218924], [-84.09282371300286, 37.714097075211534], [-84.09389518035465, 37.71514547533412], [-84.09513251264046, 37.71573260816953], [-84.09567851316172, 37.715776475274595], [-84.09684678027355, 37.716704007866404], [-84.09831897978535, 37.71692320808342], [-84.098878979652, 37.71765327530763], [-84.09913538039366, 37.719163008299645], [-84.09892837980613, 37.719843808288445], [-84.0982303798472, 37.72027767521915], [-84.09785091260657, 37.72167780772738], [-84.09665518040325, 37.72186467490218], [-84.09407711255588, 37.72156887520078], [-84.09294411330208, 37.72311180826999], [-84.09162431297823, 37.72430887483052], [-84.09231671283966, 37.72810247498514], [-84.09578091301927, 37.731703208176015], [-84.09617578007884, 37.73300240830154], [-84.09606137962739, 37.733710607987554], [-84.09668558029075, 37.73449120800128], [-84.0964073801321, 37.73549807490736], [-84.09536218041757, 37.736249874816075], [-84.0935081133667, 37.736660608257004], [-84.09107617985647, 37.737763008112644], [-84.08931451261742, 37.73759007520574], [-84.08656377958928, 37.73853420803153], [-84.08374751266454, 37.74059600816442], [-84.08154857968115, 37.74312300826993], [-84.08101468665328, 37.7450595308667], [-84.08051497991187, 37.745584475084655], [-84.08027177991332, 37.7467296752141], [-84.08090891272353, 37.748500875093235], [-84.0805531133957, 37.74891567520843]]}, "properties": {"name": "Drowning Creek", "precision": "Named-stream level only - the report gives no point location. Whole NHD stream shown.", "evidence": "Collector blog reports a Drowning Creek-area roadcut exposing the horizon (road-cut, not creek, observation).", "source": "https://vanstockum.blog/2024/02/15/10358/", "quality": "secondary / collector report - not used in scoring"}}, {"type": "Feature", "geometry": {"type": "Point", "coordinates": [-84.2033, 37.5536]}, "properties": {"name": "Big Hill (Madison County)", "precision": "Place-name level only (approximate community location)", "evidence": "Mindat.org chalcedony/agate list names 'Big Hill, Madison County'.", "source": "https://www.mindat.org/locentry-1080948.html", "quality": "secondary / collector report - not used in scoring"}}]}