{"type":"FeatureCollection","features":[{"type":"Feature","properties":{"quad":"Science Hill","gq":"1105"},"geometry":{"type":"Polygon","coordinates":[[[-84.625,37.125],[-84.625,37.25],[-84.75,37.25],[-84.75,37.125],[-84.625,37.125]]]}},{"type":"Feature","properties":{"quad":"Bobtown","gq":"1102"},"geometry":{"type":"Polygon","coordinates":[[[-84.5,37.125],[-84.5,37.25],[-84.625,37.25],[-84.625,37.125],[-84.5,37.125]]]}},{"type":"Feature","properties":{"quad":"Shopville","gq":"282"},"geometry":{"type":"Polygon","coordinates":[[[-84.375,37.125],[-84.375,37.25],[-84.5,37.25],[-84.5,37.125],[-84.375,37.125]]]}},{"type":"Feature","properties":{"quad":"Billows","gq":"228"},"geometry":{"type":"Polygon","coordinates":[[[-84.25,37.125],[-84.25,37.25],[-84.375,37.25],[-84.375,37.125],[-84.25,37.125]]]}},{"type":"Feature","properties":{"quad":"Bernstadt","gq":"202"},"geometry":{"type":"Polygon","coordinates":[[[-84.125,37.125],[-84.125,37.25],[-84.25,37.25],[-84.25,37.125],[-84.125,37.125]]]}},{"type":"Feature","properties":{"quad":"London","gq":"245"},"geometry":{"type":"Polygon","coordinates":[[[-84.0,37.125],[-84.0,37.25],[-84.125,37.25],[-84.125,37.125],[-84.0,37.125]]]}},{"type":"Feature","properties":{"quad":"Portersburg","gq":"359"},"geometry":{"type":"Polygon","coordinates":[[[-83.875,37.125],[-83.875,37.25],[-84.0,37.25],[-84.0,37.125],[-83.875,37.125]]]}},{"type":"Feature","properties":{"quad":"Manchester","gq":"318"},"geometry":{"type":"Polygon","coordinates":[[[-83.75,37.125],[-83.75,37.25],[-83.875,37.25],[-83.875,37.125],[-83.75,37.125]]]}},{"type":"Feature","properties":{"quad":"Barcreek","gq":"1485"},"geometry":{"type":"Polygon","coordinates":[[[-83.625,37.125],[-83.625,37.25],[-83.75,37.25],[-83.75,37.125],[-83.625,37.125]]]}},{"type":"Feature","properties":{"quad":"Big Creek","gq":"1477"},"geometry":{"type":"Polygon","coordinates":[[[-83.5,37.125],[-83.5,37.25],[-83.625,37.25],[-83.625,37.125],[-83.5,37.125]]]}},{"type":"Feature","properties":{"quad":"Hyden West","gq":"1468"},"geometry":{"type":"Polygon","coordinates":[[[-83.375,37.125],[-83.375,37.25],[-83.5,37.25],[-83.5,37.125],[-83.375,37.125]]]}},{"type":"Feature","properties":{"quad":"Hyden East","gq":"423"},"geometry":{"type":"Polygon","coordinates":[[[-83.25,37.125],[-83.25,37.25],[-83.375,37.25],[-83.375,37.125],[-83.25,37.125]]]}},{"type":"Feature","properties":{"quad":"Eubank","gq":"1096"},"geometry":{"type":"Polygon","coordinates":[[[-84.625,37.25],[-84.625,37.375],[-84.75,37.375],[-84.75,37.25],[-84.625,37.25]]]}},{"type":"Feature","properties":{"quad":"Woodstock","gq":"776"},"geometry":{"type":"Polygon","coordinates":[[[-84.5,37.25],[-84.5,37.375],[-84.625,37.375],[-84.625,37.25],[-84.5,37.25]]]}},{"type":"Feature","properties":{"quad":"Maretburg","gq":"338"},"geometry":{"type":"Polygon","coordinates":[[[-84.375,37.25],[-84.375,37.375],[-84.5,37.375],[-84.5,37.25],[-84.375,37.25]]]}},{"type":"Feature","properties":{"quad":"Mount Vernon","gq":"902"},"geometry":{"type":"Polygon","coordinates":[[[-84.25,37.25],[-84.25,37.375],[-84.375,37.375],[-84.375,37.25],[-84.25,37.25]]]}},{"type":"Feature","properties":{"quad":"Livingston","gq":"1179"},"geometry":{"type":"Polygon","coordinates":[[[-84.125,37.25],[-84.125,37.375],[-84.25,37.375],[-84.25,37.25],[-84.125,37.25]]]}},{"type":"Feature","properties":{"quad":"Parrot","gq":"236"},"geometry":{"type":"Polygon","coordinates":[[[-84.0,37.25],[-84.0,37.375],[-84.125,37.375],[-84.125,37.25],[-84.0,37.25]]]}},{"type":"Feature","properties":{"quad":"Tyner","gq":"247"},"geometry":{"type":"Polygon","coordinates":[[[-83.875,37.25],[-83.875,37.375],[-84.0,37.375],[-84.0,37.25],[-83.875,37.25]]]}},{"type":"Feature","properties":{"quad":"Maulden","gq":"1140"},"geometry":{"type":"Polygon","coordinates":[[[-83.75,37.25],[-83.75,37.375],[-83.875,37.375],[-83.875,37.25],[-83.75,37.25]]]}},{"type":"Feature","properties":{"quad":"Oneida","gq":"1470"},"geometry":{"type":"Polygon","coordinates":[[[-83.625,37.25],[-83.625,37.375],[-83.75,37.375],[-83.75,37.25],[-83.625,37.25]]]}},{"type":"Feature","properties":{"quad":"Mistletoe","gq":"1474"},"geometry":{"type":"Polygon","coordinates":[[[-83.5,37.25],[-83.5,37.375],[-83.625,37.375],[-83.625,37.25],[-83.5,37.25]]]}},{"type":"Feature","properties":{"quad":"Buckhorn","gq":"1449"},"geometry":{"type":"Polygon","coordinates":[[[-83.375,37.25],[-83.375,37.375],[-83.5,37.375],[-83.5,37.25],[-83.375,37.25]]]}},{"type":"Feature","properties":{"quad":"Krypton","gq":"389"},"geometry":{"type":"Polygon","coordinates":[[[-83.25,37.25],[-83.25,37.375],[-83.375,37.375],[-83.375,37.25],[-83.25,37.25]]]}},{"type":"Feature","properties":{"quad":"Halls Gap","gq":"1009"},"geometry":{"type":"Polygon","coordinates":[[[-84.625,37.375],[-84.625,37.5],[-84.75,37.5],[-84.75,37.375],[-84.625,37.375]]]}},{"type":"Feature","properties":{"quad":"Crab Orchard","gq":"571"},"geometry":{"type":"Polygon","coordinates":[[[-84.5,37.375],[-84.5,37.5],[-84.625,37.5],[-84.625,37.375],[-84.5,37.375]]]}},{"type":"Feature","properties":{"quad":"Brodhead","gq":"662"},"geometry":{"type":"Polygon","coordinates":[[[-84.375,37.375],[-84.375,37.5],[-84.5,37.5],[-84.5,37.375],[-84.375,37.375]]]}},{"type":"Feature","properties":{"quad":"Wildie","gq":"684"},"geometry":{"type":"Polygon","coordinates":[[[-84.25,37.375],[-84.25,37.5],[-84.375,37.5],[-84.375,37.375],[-84.25,37.375]]]}},{"type":"Feature","properties":{"quad":"Johnetta","gq":"685"},"geometry":{"type":"Polygon","coordinates":[[[-84.125,37.375],[-84.125,37.5],[-84.25,37.5],[-84.25,37.375],[-84.125,37.375]]]}},{"type":"Feature","properties":{"quad":"Sandgap","gq":"1100"},"geometry":{"type":"Polygon","coordinates":[[[-84.0,37.375],[-84.0,37.5],[-84.125,37.5],[-84.125,37.375],[-84.0,37.375]]]}},{"type":"Feature","properties":{"quad":"McKee","gq":"1125"},"geometry":{"type":"Polygon","coordinates":[[[-83.875,37.375],[-83.875,37.5],[-84.0,37.5],[-84.0,37.375],[-83.875,37.375]]]}},{"type":"Feature","properties":{"quad":"Sturgeon","gq":"1455"},"geometry":{"type":"Polygon","coordinates":[[[-83.75,37.375],[-83.75,37.5],[-83.875,37.5],[-83.875,37.375],[-83.75,37.375]]]}},{"type":"Feature","properties":{"quad":"Booneville","gq":"1479"},"geometry":{"type":"Polygon","coordinates":[[[-83.625,37.375],[-83.625,37.5],[-83.75,37.5],[-83.75,37.375],[-83.625,37.375]]]}},{"type":"Feature","properties":{"quad":"Cowcreek","gq":"1448"},"geometry":{"type":"Polygon","coordinates":[[[-83.5,37.375],[-83.5,37.5],[-83.625,37.5],[-83.625,37.375],[-83.5,37.375]]]}},{"type":"Feature","properties":{"quad":"Canoe","gq":"1497"},"geometry":{"type":"Polygon","coordinates":[[[-83.375,37.375],[-83.375,37.5],[-83.5,37.5],[-83.5,37.375],[-83.375,37.375]]]}},{"type":"Feature","properties":{"quad":"Haddix","gq":"447"},"geometry":{"type":"Polygon","coordinates":[[[-83.25,37.375],[-83.25,37.5],[-83.375,37.5],[-83.375,37.375],[-83.25,37.375]]]}},{"type":"Feature","properties":{"quad":"Stanford","gq":"1137"},"geometry":{"type":"Polygon","coordinates":[[[-84.625,37.5],[-84.625,37.625],[-84.75,37.625],[-84.75,37.5],[-84.625,37.5]]]}},{"type":"Feature","properties":{"quad":"Lancaster","gq":"888"},"geometry":{"type":"Polygon","coordinates":[[[-84.5,37.5],[-84.5,37.625],[-84.625,37.625],[-84.625,37.5],[-84.5,37.5]]]}},{"type":"Feature","properties":{"quad":"Paint Lick","gq":"800"},"geometry":{"type":"Polygon","coordinates":[[[-84.375,37.5],[-84.375,37.625],[-84.5,37.625],[-84.5,37.5],[-84.375,37.5]]]}},{"type":"Feature","properties":{"quad":"Berea","gq":"649"},"geometry":{"type":"Polygon","coordinates":[[[-84.25,37.5],[-84.25,37.625],[-84.375,37.625],[-84.375,37.5],[-84.25,37.5]]]}},{"type":"Feature","properties":{"quad":"Bighill","gq":"900"},"geometry":{"type":"Polygon","coordinates":[[[-84.125,37.5],[-84.125,37.625],[-84.25,37.625],[-84.25,37.5],[-84.125,37.5]]]}},{"type":"Feature","properties":{"quad":"Alcorn","gq":"963"},"geometry":{"type":"Polygon","coordinates":[[[-84.0,37.5],[-84.0,37.625],[-84.125,37.625],[-84.125,37.5],[-84.0,37.5]]]}},{"type":"Feature","properties":{"quad":"Leighton","gq":"1495"},"geometry":{"type":"Polygon","coordinates":[[[-83.875,37.5],[-83.875,37.625],[-84.0,37.625],[-84.0,37.5],[-83.875,37.5]]]}},{"type":"Feature","properties":{"quad":"Heidelberg","gq":"1340"},"geometry":{"type":"Polygon","coordinates":[[[-83.75,37.5],[-83.75,37.625],[-83.875,37.625],[-83.875,37.5],[-83.75,37.5]]]}},{"type":"Feature","properties":{"quad":"Beattyville","gq":"1483"},"geometry":{"type":"Polygon","coordinates":[[[-83.625,37.5],[-83.625,37.625],[-83.75,37.625],[-83.75,37.5],[-83.625,37.5]]]}},{"type":"Feature","properties":{"quad":"Tallega","gq":"1500"},"geometry":{"type":"Polygon","coordinates":[[[-83.5,37.5],[-83.5,37.625],[-83.625,37.625],[-83.625,37.5],[-83.5,37.5]]]}},{"type":"Feature","properties":{"quad":"Jackson","gq":"205"},"geometry":{"type":"Polygon","coordinates":[[[-83.375,37.5],[-83.375,37.625],[-83.5,37.625],[-83.5,37.5],[-83.375,37.5]]]}},{"type":"Feature","properties":{"quad":"Quicksand","gq":"240"},"geometry":{"type":"Polygon","coordinates":[[[-83.25,37.5],[-83.25,37.625],[-83.375,37.625],[-83.375,37.5],[-83.25,37.5]]]}},{"type":"Feature","properties":{"quad":"Bryantsville","gq":"945"},"geometry":{"type":"Polygon","coordinates":[[[-84.625,37.625],[-84.625,37.75],[-84.75,37.75],[-84.75,37.625],[-84.625,37.625]]]}},{"type":"Feature","properties":{"quad":"Buckeye","gq":"843"},"geometry":{"type":"Polygon","coordinates":[[[-84.5,37.625],[-84.5,37.75],[-84.625,37.75],[-84.625,37.625],[-84.5,37.625]]]}},{"type":"Feature","properties":{"quad":"Kirksville","gq":"452"},"geometry":{"type":"Polygon","coordinates":[[[-84.375,37.625],[-84.375,37.75],[-84.5,37.75],[-84.5,37.625],[-84.375,37.625]]]}},{"type":"Feature","properties":{"quad":"Richmond South","gq":"479"},"geometry":{"type":"Polygon","coordinates":[[[-84.25,37.625],[-84.25,37.75],[-84.375,37.75],[-84.375,37.625],[-84.25,37.625]]]}},{"type":"Feature","properties":{"quad":"Moberly","gq":"664"},"geometry":{"type":"Polygon","coordinates":[[[-84.125,37.625],[-84.125,37.75],[-84.25,37.75],[-84.25,37.625],[-84.125,37.625]]]}},{"type":"Feature","properties":{"quad":"Panola","gq":"686"},"geometry":{"type":"Polygon","coordinates":[[[-84.0,37.625],[-84.0,37.75],[-84.125,37.75],[-84.125,37.625],[-84.0,37.625]]]}},{"type":"Feature","properties":{"quad":"Irvine","gq":"1285"},"geometry":{"type":"Polygon","coordinates":[[[-83.875,37.625],[-83.875,37.75],[-84.0,37.75],[-84.0,37.625],[-83.875,37.625]]]}},{"type":"Feature","properties":{"quad":"Cobhill","gq":"1347"},"geometry":{"type":"Polygon","coordinates":[[[-83.75,37.625],[-83.75,37.75],[-83.875,37.75],[-83.875,37.625],[-83.75,37.625]]]}},{"type":"Feature","properties":{"quad":"Zachariah","gq":"1452"},"geometry":{"type":"Polygon","coordinates":[[[-83.625,37.625],[-83.625,37.75],[-83.75,37.75],[-83.75,37.625],[-83.625,37.625]]]}},{"type":"Feature","properties":{"quad":"Campton","gq":"1502"},"geometry":{"type":"Polygon","coordinates":[[[-83.5,37.625],[-83.5,37.75],[-83.625,37.75],[-83.625,37.625],[-83.5,37.625]]]}},{"type":"Feature","properties":{"quad":"Landsaw","gq":"201"},"geometry":{"type":"Polygon","coordinates":[[[-83.375,37.625],[-83.375,37.75],[-83.5,37.75],[-83.5,37.625],[-83.375,37.625]]]}},{"type":"Feature","properties":{"quad":"Lee City","gq":"198"},"geometry":{"type":"Polygon","coordinates":[[[-83.25,37.625],[-83.25,37.75],[-83.375,37.75],[-83.375,37.625],[-83.25,37.625]]]}},{"type":"Feature","properties":{"quad":"Wilmore","gq":"847"},"geometry":{"type":"Polygon","coordinates":[[[-84.625,37.75],[-84.625,37.875],[-84.75,37.875],[-84.75,37.75],[-84.625,37.75]]]}},{"type":"Feature","properties":{"quad":"Little Hickman","gq":"792"},"geometry":{"type":"Polygon","coordinates":[[[-84.5,37.75],[-84.5,37.875],[-84.625,37.875],[-84.625,37.75],[-84.5,37.75]]]}},{"type":"Feature","properties":{"quad":"Valley View","gq":"470"},"geometry":{"type":"Polygon","coordinates":[[[-84.375,37.75],[-84.375,37.875],[-84.5,37.875],[-84.5,37.75],[-84.375,37.75]]]}},{"type":"Feature","properties":{"quad":"Richmond North","gq":"583"},"geometry":{"type":"Polygon","coordinates":[[[-84.25,37.75],[-84.25,37.875],[-84.375,37.875],[-84.375,37.75],[-84.25,37.75]]]}},{"type":"Feature","properties":{"quad":"Union City","gq":"585"},"geometry":{"type":"Polygon","coordinates":[[[-84.125,37.75],[-84.125,37.875],[-84.25,37.875],[-84.25,37.75],[-84.125,37.75]]]}},{"type":"Feature","properties":{"quad":"Palmer","gq":"613"},"geometry":{"type":"Polygon","coordinates":[[[-84.0,37.75],[-84.0,37.875],[-84.125,37.875],[-84.125,37.75],[-84.0,37.75]]]}},{"type":"Feature","properties":{"quad":"Clay City","gq":"663"},"geometry":{"type":"Polygon","coordinates":[[[-83.875,37.75],[-83.875,37.875],[-84.0,37.875],[-84.0,37.75],[-83.875,37.75]]]}},{"type":"Feature","properties":{"quad":"Stanton","gq":"1182"},"geometry":{"type":"Polygon","coordinates":[[[-83.75,37.75],[-83.75,37.875],[-83.875,37.875],[-83.875,37.75],[-83.75,37.75]]]}},{"type":"Feature","properties":{"quad":"Slade","gq":"1183"},"geometry":{"type":"Polygon","coordinates":[[[-83.625,37.75],[-83.625,37.875],[-83.75,37.875],[-83.75,37.75],[-83.625,37.75]]]}},{"type":"Feature","properties":{"quad":"Pomeroyton","gq":"1184"},"geometry":{"type":"Polygon","coordinates":[[[-83.5,37.75],[-83.5,37.875],[-83.625,37.875],[-83.625,37.75],[-83.5,37.75]]]}},{"type":"Feature","properties":{"quad":"Hazel Green","gq":"266"},"geometry":{"type":"Polygon","coordinates":[[[-83.375,37.75],[-83.375,37.875],[-83.5,37.875],[-83.5,37.75],[-83.375,37.75]]]}},{"type":"Feature","properties":{"quad":"Cannel City","gq":"1498"},"geometry":{"type":"Polygon","coordinates":[[[-83.25,37.75],[-83.25,37.875],[-83.375,37.875],[-83.375,37.75],[-83.25,37.75]]]}},{"type":"Feature","properties":{"quad":"Keene","gq":"440"},"geometry":{"type":"Polygon","coordinates":[[[-84.625,37.875],[-84.625,38.0],[-84.75,38.0],[-84.75,37.875],[-84.625,37.875]]]}},{"type":"Feature","properties":{"quad":"Nicholasville","gq":"767"},"geometry":{"type":"Polygon","coordinates":[[[-84.5,37.875],[-84.5,38.0],[-84.625,38.0],[-84.625,37.875],[-84.5,37.875]]]}},{"type":"Feature","properties":{"quad":"Coletown","gq":"644"},"geometry":{"type":"Polygon","coordinates":[[[-84.375,37.875],[-84.375,38.0],[-84.5,38.0],[-84.5,37.875],[-84.375,37.875]]]}},{"type":"Feature","properties":{"quad":"Ford","gq":"764"},"geometry":{"type":"Polygon","coordinates":[[[-84.25,37.875],[-84.25,38.0],[-84.375,38.0],[-84.375,37.875],[-84.25,37.875]]]}},{"type":"Feature","properties":{"quad":"Winchester","gq":"1159"},"geometry":{"type":"Polygon","coordinates":[[[-84.125,37.875],[-84.125,38.0],[-84.25,38.0],[-84.25,37.875],[-84.125,37.875]]]}},{"type":"Feature","properties":{"quad":"Hedges","gq":"1235"},"geometry":{"type":"Polygon","coordinates":[[[-84.0,37.875],[-84.0,38.0],[-84.125,38.0],[-84.125,37.875],[-84.0,37.875]]]}},{"type":"Feature","properties":{"quad":"Levee","gq":"1478"},"geometry":{"type":"Polygon","coordinates":[[[-83.875,37.875],[-83.875,38.0],[-84.0,38.0],[-84.0,37.875],[-83.875,37.875]]]}},{"type":"Feature","properties":{"quad":"Means","gq":"1324"},"geometry":{"type":"Polygon","coordinates":[[[-83.75,37.875],[-83.75,38.0],[-83.875,38.0],[-83.875,37.875],[-83.75,37.875]]]}},{"type":"Feature","properties":{"quad":"Frenchburg","gq":"1390"},"geometry":{"type":"Polygon","coordinates":[[[-83.625,37.875],[-83.625,38.0],[-83.75,38.0],[-83.75,37.875],[-83.625,37.875]]]}},{"type":"Feature","properties":{"quad":"Scranton","gq":"1488"},"geometry":{"type":"Polygon","coordinates":[[[-83.5,37.875],[-83.5,38.0],[-83.625,38.0],[-83.625,37.875],[-83.5,37.875]]]}},{"type":"Feature","properties":{"quad":"Ezel","gq":"721"},"geometry":{"type":"Polygon","coordinates":[[[-83.375,37.875],[-83.375,38.0],[-83.5,38.0],[-83.5,37.875],[-83.375,37.875]]]}},{"type":"Feature","properties":{"quad":"West Liberty","gq":"589"},"geometry":{"type":"Polygon","coordinates":[[[-83.25,37.875],[-83.25,38.0],[-83.375,38.0],[-83.375,37.875],[-83.25,37.875]]]}}]}